IRIDIUM 136             
1 42962U 17061H   23330.75076295  .00000636  00000+0  22002-3 0  9993
2 42962  86.3990  55.3361 0001919 101.5814 258.5598 14.34218055321048
